CCSDS_OMM_VERS = 2.0
CREATION_DATE  = 
ORIGINATOR     = 

OBJECT_NAME    = STARLINK-36325
OBJECT_ID      = 2026-034M
CENTER_NAME    = EARTH
REF_FRAME      = TEME
TIME_SYSTEM    = UTC
MEAN_ELEMENT_THEORY = SGP/SGP4

EPOCH          = 2026-03-13T21:30:02.227968
MEAN_MOTION    = 15.81000787
ECCENTRICITY   = .00018222
INCLINATION    = 53.1580
RA_OF_ASC_NODE = 190.1796
ARG_OF_PERICENTER = 67.1619
MEAN_ANOMALY   = 292.9596

EPHEMERIS_TYPE = 0
CLASSIFICATION_TYPE = U
NORAD_CAT_ID   = 67861
ELEMENT_SET_NO = 999
REV_AT_EPOCH   = 460
BSTAR          = .15228586E-2
MEAN_MOTION_DOT = .312845E-2
MEAN_MOTION_DDOT = 0

CCSDS_OMM_VERS = 2.0
CREATION_DATE  = 
ORIGINATOR     = 

OBJECT_NAME    = STARLINK-36332
OBJECT_ID      = 2026-034N
CENTER_NAME    = EARTH
REF_FRAME      = TEME
TIME_SYSTEM    = UTC
MEAN_ELEMENT_THEORY = SGP/SGP4

EPOCH          = 2026-03-13T19:57:54.857088
MEAN_MOTION    = 15.81034223
ECCENTRICITY   = .0000424
INCLINATION    = 53.1580
RA_OF_ASC_NODE = 190.4920
ARG_OF_PERICENTER = 127.4406
MEAN_ANOMALY   = 232.6655

EPHEMERIS_TYPE = 0
CLASSIFICATION_TYPE = U
NORAD_CAT_ID   = 67862
ELEMENT_SET_NO = 999
REV_AT_EPOCH   = 459
BSTAR          = .18387758E-2
MEAN_MOTION_DOT = .38157E-2
MEAN_MOTION_DDOT = 0

CCSDS_OMM_VERS = 2.0
CREATION_DATE  = 
ORIGINATOR     = 

OBJECT_NAME    = STARLINK-36835
OBJECT_ID      = 2026-034P
CENTER_NAME    = EARTH
REF_FRAME      = TEME
TIME_SYSTEM    = UTC
MEAN_ELEMENT_THEORY = SGP/SGP4

EPOCH          = 2026-03-13T19:56:50.210016
MEAN_MOTION    = 15.80974350
ECCENTRICITY   = .00012485
INCLINATION    = 53.1583
RA_OF_ASC_NODE = 190.4851
ARG_OF_PERICENTER = 96.8100
MEAN_ANOMALY   = 263.3065

EPHEMERIS_TYPE = 0
CLASSIFICATION_TYPE = U
NORAD_CAT_ID   = 67863
ELEMENT_SET_NO = 999
REV_AT_EPOCH   = 459
BSTAR          = .93905221E-3
MEAN_MOTION_DOT = .18965E-2
MEAN_MOTION_DDOT = 0

CCSDS_OMM_VERS = 2.0
CREATION_DATE  = 
ORIGINATOR     = 

OBJECT_NAME    = STARLINK-36831
OBJECT_ID      = 2026-034Q
CENTER_NAME    = EARTH
REF_FRAME      = TEME
TIME_SYSTEM    = UTC
MEAN_ELEMENT_THEORY = SGP/SGP4

EPOCH          = 2026-03-13T19:55:45.226848
MEAN_MOTION    = 15.81028962
ECCENTRICITY   = .00008434
INCLINATION    = 53.1582
RA_OF_ASC_NODE = 190.4815
ARG_OF_PERICENTER = 109.9460
MEAN_ANOMALY   = 250.1654

EPHEMERIS_TYPE = 0
CLASSIFICATION_TYPE = U
NORAD_CAT_ID   = 67864
ELEMENT_SET_NO = 999
REV_AT_EPOCH   = 459
BSTAR          = .17067115E-2
MEAN_MOTION_DOT = .352818E-2
MEAN_MOTION_DDOT = 0

CCSDS_OMM_VERS = 2.0
CREATION_DATE  = 
ORIGINATOR     = 

OBJECT_NAME    = STARLINK-36738
OBJECT_ID      = 2026-034R
CENTER_NAME    = EARTH
REF_FRAME      = TEME
TIME_SYSTEM    = UTC
MEAN_ELEMENT_THEORY = SGP/SGP4

EPOCH          = 2026-03-13T19:54:40.490784
MEAN_MOTION    = 15.81030823
ECCENTRICITY   = .00012429
INCLINATION    = 53.1580
RA_OF_ASC_NODE = 190.4760
ARG_OF_PERICENTER = 119.9571
MEAN_ANOMALY   = 240.1576

EPHEMERIS_TYPE = 0
CLASSIFICATION_TYPE = U
NORAD_CAT_ID   = 67865
ELEMENT_SET_NO = 999
REV_AT_EPOCH   = 459
BSTAR          = .16030174E-2
MEAN_MOTION_DOT = .330491E-2
MEAN_MOTION_DDOT = 0

CCSDS_OMM_VERS = 2.0
CREATION_DATE  = 
ORIGINATOR     = 

OBJECT_NAME    = STARLINK-36780
OBJECT_ID      = 2026-034S
CENTER_NAME    = EARTH
REF_FRAME      = TEME
TIME_SYSTEM    = UTC
MEAN_ELEMENT_THEORY = SGP/SGP4

EPOCH          = 2026-03-13T21:24:38.433600
MEAN_MOTION    = 15.80931941
ECCENTRICITY   = .0002294
INCLINATION    = 53.1585
RA_OF_ASC_NODE = 190.1525
ARG_OF_PERICENTER = 39.7076
MEAN_ANOMALY   = 320.4115

EPHEMERIS_TYPE = 0
CLASSIFICATION_TYPE = U
NORAD_CAT_ID   = 67866
ELEMENT_SET_NO = 999
REV_AT_EPOCH   = 460
BSTAR          = .84194943E-3
MEAN_MOTION_DOT = .169239E-2
MEAN_MOTION_DDOT = 0

CCSDS_OMM_VERS = 2.0
CREATION_DATE  = 
ORIGINATOR     = 

OBJECT_NAME    = STARLINK-36761
OBJECT_ID      = 2026-034T
CENTER_NAME    = EARTH
REF_FRAME      = TEME
TIME_SYSTEM    = UTC
MEAN_ELEMENT_THEORY = SGP/SGP4

EPOCH          = 2026-03-13T19:52:30.659232
MEAN_MOTION    = 15.81027543
ECCENTRICITY   = .00012387
INCLINATION    = 53.1585
RA_OF_ASC_NODE = 190.4652
ARG_OF_PERICENTER = 83.2126
MEAN_ANOMALY   = 276.9038

EPHEMERIS_TYPE = 0
CLASSIFICATION_TYPE = U
NORAD_CAT_ID   = 67867
ELEMENT_SET_NO = 999
REV_AT_EPOCH   = 459
BSTAR          = .14409667E-2
MEAN_MOTION_DOT = .295758E-2
MEAN_MOTION_DDOT = 0

CCSDS_OMM_VERS = 2.0
CREATION_DATE  = 
ORIGINATOR     = 

OBJECT_NAME    = STARLINK-36762
OBJECT_ID      = 2026-034U
CENTER_NAME    = EARTH
REF_FRAME      = TEME
TIME_SYSTEM    = UTC
MEAN_ELEMENT_THEORY = SGP/SGP4

EPOCH          = 2026-03-13T19:51:26.103744
MEAN_MOTION    = 15.80995612
ECCENTRICITY   = .00012968
INCLINATION    = 53.1583
RA_OF_ASC_NODE = 190.4603
ARG_OF_PERICENTER = 126.9775
MEAN_ANOMALY   = 233.1367

EPHEMERIS_TYPE = 0
CLASSIFICATION_TYPE = U
NORAD_CAT_ID   = 67868
ELEMENT_SET_NO = 999
REV_AT_EPOCH   = 459
BSTAR          = .13042461E-2
MEAN_MOTION_DOT = .266314E-2
MEAN_MOTION_DDOT = 0

CCSDS_OMM_VERS = 2.0
CREATION_DATE  = 
ORIGINATOR     = 

OBJECT_NAME    = STARLINK-36779
OBJECT_ID      = 2026-034V
CENTER_NAME    = EARTH
REF_FRAME      = TEME
TIME_SYSTEM    = UTC
MEAN_ELEMENT_THEORY = SGP/SGP4

EPOCH          = 2026-03-13T19:50:21.086016
MEAN_MOTION    = 15.80985150
ECCENTRICITY   = .00004924
INCLINATION    = 53.1584
RA_OF_ASC_NODE = 190.4549
ARG_OF_PERICENTER = 106.2805
MEAN_ANOMALY   = 253.8272

EPHEMERIS_TYPE = 0
CLASSIFICATION_TYPE = U
NORAD_CAT_ID   = 67869
ELEMENT_SET_NO = 999
REV_AT_EPOCH   = 459
BSTAR          = .1151597E-2
MEAN_MOTION_DOT = .234069E-2
MEAN_MOTION_DDOT = 0

CCSDS_OMM_VERS = 2.0
CREATION_DATE  = 
ORIGINATOR     = 

OBJECT_NAME    = STARLINK-36770
OBJECT_ID      = 2026-034W
CENTER_NAME    = EARTH
REF_FRAME      = TEME
TIME_SYSTEM    = UTC
MEAN_ELEMENT_THEORY = SGP/SGP4

EPOCH          = 2026-03-13T19:48:11.303712
MEAN_MOTION    = 15.81026166
ECCENTRICITY   = .00011226
INCLINATION    = 53.1584
RA_OF_ASC_NODE = 190.4444
ARG_OF_PERICENTER = 130.3360
MEAN_ANOMALY   = 229.7761

EPHEMERIS_TYPE = 0
CLASSIFICATION_TYPE = U
NORAD_CAT_ID   = 67870
ELEMENT_SET_NO = 999
REV_AT_EPOCH   = 459
BSTAR          = .14752626E-2
MEAN_MOTION_DOT = .303055E-2
MEAN_MOTION_DDOT = 0

CCSDS_OMM_VERS = 2.0
CREATION_DATE  = 
ORIGINATOR     = 

OBJECT_NAME    = STARLINK-36769
OBJECT_ID      = 2026-034X
CENTER_NAME    = EARTH
REF_FRAME      = TEME
TIME_SYSTEM    = UTC
MEAN_ELEMENT_THEORY = SGP/SGP4

EPOCH          = 2026-03-13T19:49:16.354272
MEAN_MOTION    = 15.81012419
ECCENTRICITY   = .00007613
INCLINATION    = 53.1583
RA_OF_ASC_NODE = 190.4500
ARG_OF_PERICENTER = 118.5914
MEAN_ANOMALY   = 241.5185

EPHEMERIS_TYPE = 0
CLASSIFICATION_TYPE = U
NORAD_CAT_ID   = 67871
ELEMENT_SET_NO = 999
REV_AT_EPOCH   = 459
BSTAR          = .13330732E-2
MEAN_MOTION_DOT = .272634E-2
MEAN_MOTION_DDOT = 0

CCSDS_OMM_VERS = 2.0
CREATION_DATE  = 
ORIGINATOR     = 

OBJECT_NAME    = STARLINK-36786
OBJECT_ID      = 2026-034Y
CENTER_NAME    = EARTH
REF_FRAME      = TEME
TIME_SYSTEM    = UTC
MEAN_ELEMENT_THEORY = SGP/SGP4

EPOCH          = 2026-03-13T19:47:07.016928
MEAN_MOTION    = 15.80982761
ECCENTRICITY   = .00018004
INCLINATION    = 53.1582
RA_OF_ASC_NODE = 190.4400
ARG_OF_PERICENTER = 52.9164
MEAN_ANOMALY   = 307.2024

EPHEMERIS_TYPE = 0
CLASSIFICATION_TYPE = U
NORAD_CAT_ID   = 67872
ELEMENT_SET_NO = 999
REV_AT_EPOCH   = 459
BSTAR          = .11808856E-2
MEAN_MOTION_DOT = .240181E-2
MEAN_MOTION_DDOT = 0

