STARLINK-36325          
1 67861U 26034M   26072.89585912  .00312845  00000+0  15229-2 0  9990
2 67861  53.1580 190.1796 0001822  67.1619 292.9596 15.81000787  4607
STARLINK-36332          
1 67862U 26034N   26072.83188492  .00381570  00000+0  18388-2 0  9997
2 67862  53.1580 190.4920 0000424 127.4406 232.6655 15.81034223  4598
STARLINK-36835          
1 67863U 26034P   26072.83113669  .00189650  00000+0  93905-3 0  9996
2 67863  53.1583 190.4851 0001248  96.8100 263.3065 15.80974350  4599
STARLINK-36831          
1 67864U 26034Q   26072.83038457  .00352818  00000+0  17067-2 0  9990
2 67864  53.1582 190.4815 0000843 109.9460 250.1654 15.81028962  4592
STARLINK-36738          
1 67865U 26034R   26072.82963531  .00330491  00000+0  16030-2 0  9992
2 67865  53.1580 190.4760 0001242 119.9571 240.1576 15.81030823  4599
STARLINK-36780          
1 67866U 26034S   26072.89211150  .00169239  00000+0  84195-3 0  9991
2 67866  53.1585 190.1525 0002294  39.7076 320.4115 15.80931941  4601
STARLINK-36761          
1 67867U 26034T   26072.82813263  .00295758  00000+0  14410-2 0  9996
2 67867  53.1585 190.4652 0001238  83.2126 276.9038 15.81027543  4595
STARLINK-36762          
1 67868U 26034U   26072.82738546  .00266314  00000+0  13042-2 0  9993
2 67868  53.1583 190.4603 0001296 126.9775 233.1367 15.80995612  4599
STARLINK-36779          
1 67869U 26034V   26072.82663294  .00234069  00000+0  11516-2 0  9997
2 67869  53.1584 190.4549 0000492 106.2805 253.8272 15.80985150  4592
STARLINK-36770          
1 67870U 26034W   26072.82513083  .00303055  00000+0  14753-2 0  9997
2 67870  53.1584 190.4444 0001122 130.3360 229.7761 15.81026166  4592
STARLINK-36769          
1 67871U 26034X   26072.82588373  .00272634  00000+0  13331-2 0  9991
2 67871  53.1583 190.4500 0000761 118.5914 241.5185 15.81012419  4594
STARLINK-36786          
1 67872U 26034Y   26072.82438677  .00240181  00000+0  11809-2 0  9993
2 67872  53.1582 190.4400 0001800  52.9164 307.2024 15.80982761  4593
